ORBCOMM FM24            
1 25478U 98053D   25316.95137969  .00003642  00000+0  12255-2 0  9998
2 25478  45.0074 283.5364 0004056 278.8058  81.2331 14.38540632418863
ORBCOMM FM25            
1 25479U 98053E   25316.30073205  .00003706  00000+0  12468-2 0  9997
2 25479  45.0063 284.9170 0006431 278.2486  81.7633 14.38507903419067
ORBCOMM FM26            
1 25480U 98053F   25316.34243895  .00002428  00000+0  84997-3 0  9994
2 25480  45.0070 282.2740 0008309 289.4209  70.5741 14.37496972418960
ORBCOMM FM27            
1 25481U 98053G   25316.63231090  .00003081  00000+0  10441-2 0  9999
2 25481  45.0049 283.4894 0002847 292.4349  67.6197 14.38538859419044
ORBCOMM FM28            
1 25482U 98053H   25316.93034243  .00003066  00000+0  10360-2 0  9997
2 25482  45.0041 219.3841 0005807 330.7078  29.3444 14.38682963419777
ORBCOMM FM30            
1 25980U 99065A   25316.80188217  .00002129  00000+0  74879-3 0  9996
2 25980  45.0304 106.1007 0005681  41.0600 319.0676 14.37660544355834
ORBCOMM FM31            
1 25981U 99065B   25316.85149381  .00002158  00000+0  75969-3 0  9994
2 25981  45.0212  99.3232 0003518  76.9910 283.1331 14.37588678355391
ORBCOMM FM32            
1 25982U 99065C   25316.85717307  .00001805  00000+0  65530-3 0  9995
2 25982  45.0138 116.8705 0006028  63.9197 296.2271 14.36642551355973
